[{"OBJECT_NAME":"SUPERVIEW-1 03","OBJECT_ID":"2018-002A","EPOCH":"2026-03-09T22:14:33.880992","MEAN_MOTION":15.35916978,"ECCENTRICITY":0.00509393,"INCLINATION":97.3162,"RA_OF_ASC_NODE":154.1458,"ARG_OF_PERICENTER":177.0269,"MEAN_ANOMALY":183.1288,"EPHEMERIS_TYPE":0,"CLASSIFICATION_TYPE":"U","NORAD_CAT_ID":43099,"ELEMENT_SET_NO":999,"REV_AT_EPOCH":45311,"BSTAR":0.00062641306,"MEAN_MOTION_DOT":0.00022818,"MEAN_MOTION_DDOT":0},{"OBJECT_NAME":"STARLINK-35787","OBJECT_ID":"2025-288V","EPOCH":"2026-03-09T06:02:08.980512","MEAN_MOTION":15.27565968,"ECCENTRICITY":0.00013355,"INCLINATION":43.0028,"RA_OF_ASC_NODE":25.6444,"ARG_OF_PERICENTER":274.6201,"MEAN_ANOMALY":85.4498,"EPHEMERIS_TYPE":0,"CLASSIFICATION_TYPE":"U","NORAD_CAT_ID":66978,"ELEMENT_SET_NO":999,"REV_AT_EPOCH":1522,"BSTAR":0.00089155583,"MEAN_MOTION_DOT":0.00024342,"MEAN_MOTION_DDOT":0}]
